      2.11          N: GNSS NAV DATA                        RINEX VERSION / TYPE
rineditnav          gnsstk              05/03/2022 19:23:50 PGM / RUN BY / DATE
                                                            END OF HEADER
22 15  7 18 18  0  0.0  .372356269509D-03  .386535248253D-11  .000000000000D+00
     .260000000000D+02  .480312500000D+02  .533843665303D-08 -.289207636583D+01
     .244937837124D-05  .803699251264D-02  .746548175812D-05  .515368389130D+04
     .583200000000D+06  .745058059692D-08 -.178714476093D+01 -.745058059692D-08
     .922526438266D+00  .214437500000D+03 -.203806726991D+01 -.826105839196D-08
     .441804117201D-09  .100000000000D+01  .185300000000D+04  .000000000000D+00
     .240000000000D+01  .000000000000D+00 -.176951289177D-07  .260000000000D+02
     .576006000000D+06  .400000000000D+01
20 15  7 18 18  0  0.0  .339480582625D-03  .318323145621D-11  .000000000000D+00
     .720000000000D+02  .347812500000D+02  .533379360248D-08  .169614431193D+01
     .160746276379D-05  .478364527225D-02  .807456672192D-05  .515361257935D+04
     .583200000000D+06 -.447034835815D-07 -.184049921339D+01 -.113621354103D-06
     .925939904519D+00  .209406250000D+03  .117990107868D+01 -.842570810742D-08
     .341799951626D-09  .100000000000D+01  .185300000000D+04  .000000000000D+00
     .240000000000D+01  .000000000000D+00 -.838190317154D-08  .720000000000D+02
     .576006000000D+06  .400000000000D+01
11 15  7 18 18  0  0.0 -.592193566263D-03 -.238742359215D-11  .000000000000D+00
     .600000000000D+02 -.100687500000D+03  .617918595933D-08 -.363913311410D+00
    -.512413680553D-05  .160323835444D-01  .819750130177D-05  .515374807549D+04
     .583200000000D+06 -.141561031342D-06  .312215674823D+01  .104308128357D-06
     .894049438782D+00  .184343750000D+03  .142253684285D+01 -.917823945337D-08
    -.278940190407D-09  .100000000000D+01  .185300000000D+04  .000000000000D+00
     .240000000000D+01  .000000000000D+00 -.121071934700D-07  .600000000000D+02
     .576006000000D+06  .400000000000D+01
25 15  7 18 18  0  0.0 -.145556405187D-04 -.454747350886D-11  .000000000000D+00
     .440000000000D+02  .883750000000D+02  .429089301863D-08 -.163060176230D+01
     .459142029285D-05  .465105869807D-02  .532902777195D-05  .515365575027D+04
     .583200000000D+06  .521540641785D-07  .137541167112D+01 -.745058059692D-08
     .978177357585D+00  .285625000000D+03  .755529043754D+00 -.802926302246D-08
     .424660545959D-09  .100000000000D+01  .185300000000D+04  .000000000000D+00
     .240000000000D+01  .000000000000D+00  .512227416039D-08  .440000000000D+02
     .576006000000D+06  .400000000000D+01
21 15  7 18 18  0  0.0 -.464791897684D-03 -.318323145621D-11  .000000000000D+00
     .780000000000D+02 -.595000000000D+02  .488448917287D-08 -.137429622242D+01
    -.300258398056D-05  .224866138306D-01  .104270875454D-04  .515379486847D+04
     .583200000000D+06  .275671482086D-06 -.283118162105D+01  .560656189919D-06
     .934666790178D+00  .161156250000D+03 -.189273041102D+01 -.814248202420D-08
    -.180721813503D-09  .100000000000D+01  .185300000000D+04  .000000000000D+00
     .340000000000D+01  .000000000000D+00 -.116415321827D-07  .780000000000D+02
     .576006000000D+06  .400000000000D+01
19 15  7 18 18  0  0.0 -.516211148351D-03 -.909494701773D-12  .000000000000D+00
     .890000000000D+02 -.754375000000D+02  .476341270097D-08  .148673872461D+01
    -.373832881451D-05  .115925064310D-01  .397302210331D-05  .515374797821D+04
     .583200000000D+06 -.154599547386D-06  .251712876513D+01  .236555933952D-06
     .970185346880D+00  .311781250000D+03  .582301471742D+00 -.844285167866D-08
    -.372515516767D-09  .100000000000D+01  .185300000000D+04  .000000000000D+00
     .240000000000D+01  .000000000000D+00 -.149011611938D-07  .890000000000D+02
     .576006000000D+06  .400000000000D+01
26 15  7 18 18  0  0.0 -.106883235276D-04 -.579802872380D-11  .000000000000D+00
     .210000000000D+02  .968437500000D+02  .471233914498D-08  .281416717866D+01
     .490434467793D-05  .293221673928D-03  .528432428837D-05  .515360447311D+04
     .583200000000D+06  .149011611938D-07  .137192116029D+01  .931322574615D-08
     .960282999230D+00  .280625000000D+03  .127947467674D+01 -.825070081766D-08
     .377515725045D-09  .100000000000D+01  .185300000000D+04  .000000000000D+00
     .240000000000D+01  .000000000000D+00  .745058059692D-08  .210000000000D+02
     .576006000000D+06  .400000000000D+01
23 15  7 18 17 59 44.0 -.121779274195D-03 -.238742359215D-11  .000000000000D+00
     .320000000000D+02 -.164687500000D+02  .505628204301D-08  .116047030817D+01
    -.718981027603D-06  .104244605172D-01  .551901757717D-05  .515358146095D+04
     .583184000000D+06 -.173225998878D-06 -.715110554128D+00  .106170773506D-06
     .947884961613D+00  .268250000000D+03 -.265221567826D+01 -.835963392659D-08
    -.421446126351D-09  .100000000000D+01  .185300000000D+04  .000000000000D+00
     .240000000000D+01  .000000000000D+00 -.200234353542D-07  .320000000000D+02
     .576006000000D+06  .400000000000D+01
24 15  7 18 18  0  0.0 -.154366716743D-05 -.682121026330D-12  .000000000000D+00
     .900000000000D+01  .166250000000D+02  .447232914760D-08  .425002780832D+00
     .875443220139D-06  .326235196553D-02  .109057873487D-04  .515367073441D+04
     .583200000000D+06  .484287738800D-07  .311256964919D+00  .651925802231D-07
     .953297909187D+00  .168625000000D+03  .348305232151D+00 -.796497463031D-08
    -.182150444440D-09  .100000000000D+01  .185300000000D+04  .000000000000D+00
     .240000000000D+01  .000000000000D+00  .232830643654D-08  .900000000000D+01
     .576006000000D+06  .400000000000D+01
29 15  7 18 18  0  0.0  .623104162514D-03  .204636307899D-11  .000000000000D+00
     .450000000000D+02 -.702187500000D+02  .455768984608D-08 -.145316451477D+01
    -.357627868652D-05  .107800762635D-02  .328570604324D-05  .515373336792D+04
     .583200000000D+06  .540167093277D-07  .247710417790D+01 -.141561031342D-06
     .973945641751D+00  .320093750000D+03 -.484516626039D+00 -.832141804903D-08
    -.256082095419D-09  .100000000000D+01  .185300000000D+04  .000000000000D+00
     .240000000000D+01  .000000000000D+00 -.102445483208D-07  .450000000000D+02
     .576006000000D+06  .400000000000D+01
31 15  7 18 18  0  0.0  .309389550239D-03 -.125055521494D-11  .000000000000D+00
     .870000000000D+02  .388750000000D+02  .398873757550D-08 -.531573887649D+00
     .178441405296D-05  .802394631319D-02  .106841325760D-04  .515355474854D+04
     .583200000000D+06  .558793544769D-08  .360964505975D+00 -.141561031342D-06
     .974996882979D+00  .177625000000D+03 -.523902210653D+00 -.776460914142D-08
    -.917895376884D-10  .100000000000D+01  .185300000000D+04  .000000000000D+00
     .240000000000D+01  .000000000000D+00 -.135041773319D-07  .870000000000D+02
     .576006000000D+06  .400000000000D+01
27 15  7 18 18  0  0.0  .525545328856D-05  .284217094304D-11  .000000000000D+00
     .410000000000D+02 -.662812500000D+02  .476555564738D-08  .232063196841D+01
    -.338815152645D-05  .259684957564D-02  .304169952869D-05  .515369490814D+04
     .583200000000D+06 -.145286321640D-06  .241959988767D+01  .279396772385D-07
     .967947219733D+00  .325062500000D+03  .292584342924D+00 -.834356182855D-08
    -.185007706314D-09  .100000000000D+01  .185300000000D+04  .000000000000D+00
     .240000000000D+01  .000000000000D+00  .139698386192D-08  .410000000000D+02
     .576006000000D+06  .400000000000D+01
32 15  7 18 18  0  0.0 -.965269282460D-04  .101181285572D-10  .000000000000D+00
     .600000000000D+02  .403750000000D+02  .511664170009D-08  .287227638698D-01
     .202469527721D-05  .112737701274D-01  .691786408424D-05  .515372119522D+04
     .583200000000D+06  .189989805222D-06 -.168496852481D+01  .540167093277D-07
     .946510909956D+00  .237625000000D+03  .759620695422D-01 -.847856745208D-08
     .366443835285D-09  .100000000000D+01  .185300000000D+04  .000000000000D+00
     .240000000000D+01  .000000000000D+00 -.372529029846D-08  .600000000000D+02
     .576006000000D+06  .400000000000D+01
30 15  7 18 18  0  0.0 -.112750567496D-04  .761701812735D-11  .000000000000D+00
     .320000000000D+02  .295312500000D+02  .433482341994D-08 -.378685145733D+00
     .152364373207D-05  .162243016530D-02  .112187117338D-04  .515372364426D+04
     .583200000000D+06  .298023223877D-07  .401563430454D+00 -.167638063431D-07
     .955861595586D+00  .156843750000D+03  .298589058269D+01 -.791354391658D-08
    -.138934358602D-09  .100000000000D+01  .185300000000D+04  .000000000000D+00
     .240000000000D+01  .000000000000D+00  .325962901115D-08  .320000000000D+02
     .576006000000D+06  .400000000000D+01
15 15  7 18 17 59 44.0 -.261177774519D-03 -.204636307899D-11  .000000000000D+00
     .000000000000D+00 -.176875000000D+02  .544844123516D-08  .163301475936D+01
    -.890344381332D-06  .722276384477D-02  .478513538837D-05  .515367163658D+04
     .583184000000D+06 -.484287738800D-07 -.768117367514D+00  .763684511185D-07
     .932675027213D+00  .273843750000D+03  .392042456771D+00 -.859250076929D-08
    -.293226499775D-09  .100000000000D+01  .185300000000D+04  .000000000000D+00
     .240000000000D+01  .000000000000D+00 -.107102096081D-07  .000000000000D+00
     .577206000000D+06  .400000000000D+01
 7 15  7 18 17 59 44.0  .475176610053D-03  .216004991671D-11  .000000000000D+00
     .190000000000D+02  .271875000000D+02  .409695636896D-08 -.421476231011D+00
     .154040753841D-05  .870126998052D-02  .112932175398D-04  .515370858955D+04
     .583184000000D+06  .119209289551D-06  .352991833584D+00  .726431608200D-07
     .970122034711D+00  .165781250000D+03 -.273837121323D+01 -.785104131310D-08
    -.169292766009D-09  .100000000000D+01  .185300000000D+04  .000000000000D+00
     .240000000000D+01  .000000000000D+00 -.111758708954D-07  .190000000000D+02
     .582546000000D+06  .400000000000D+01
